start=new Date('2021-10-17T00:00:00.000Z').valueOf();
sats=[{"FILE":"3166610","SEMIMAJOR_AXIS":"6925.340","NORAD_CAT_ID":"45073","REV_AT_EPOCH":"9477","MEAN_MOTION_DDOT":"0.0000000000000","RCS_SIZE":"LARGE","EPHEMERIS_TYPE":"0","TIME_SYSTEM":"UTC","DECAY_DATE":null,"INCLINATION":"53.0539","RA_OF_ASC_NODE":"273.2361","PERIOD":"95.592","OBJECT_NAME":"STARLINK-1170","OBJECT_ID":"2020-006AF","SITE":"AFETR","CENTER_NAME":"EARTH","BSTAR":"0.00012137000000","MEAN_MOTION_DOT":"0.00001527","PERIAPSIS":"546.218","ARG_OF_PERICENTER":"76.0514","MEAN_ELEMENT_THEORY":"SGP4","APOAPSIS":"548.193","MEAN_MOTION":"15.06402769","TLE_LINE1":"1 45073U 20006AF  21289.35673854  .00001527  00000-0  12137-3 0  9992","COUNTRY_CODE":"US","LAUNCH_DATE":"2020-01-29","MEAN_ANOMALY":"284.0634","OBJECT_TYPE":"PAYLOAD","REF_FRAME":"TEME","CLASSIFICATION_TYPE":"U","ELEMENT_SET_NO":"999","TLE_LINE2":"2 45073  53.0539 273.2361 0001426  76.0514 284.0634 15.06402769 94770","GP_ID":"187355944","EPOCH":"2021-10-16T08:33:42.209856","ECCENTRICITY":"0.00014260"},{"ELEMENT_SET_NO":"999","CLASSIFICATION_TYPE":"U","ECCENTRICITY":"0.00014960","EPOCH":"2021-10-16T08:12:30.630816","TLE_LINE2":"2 45074  53.0548 273.3152 0001496  71.4297 288.6855 15.06389092 94772","GP_ID":"187355695","LAUNCH_DATE":"2020-01-29","REF_FRAME":"TEME","MEAN_ANOMALY":"288.6855","OBJECT_TYPE":"PAYLOAD","APOAPSIS":"548.283","ARG_OF_PERICENTER":"71.4297","MEAN_ELEMENT_THEORY":"SGP4","TLE_LINE1":"1 45074U 20006AG  21289.34202119 -.00000010  00000-0  18257-4 0  9991","COUNTRY_CODE":"US","MEAN_MOTION":"15.06389092","MEAN_MOTION_DOT":"-0.00000010","PERIAPSIS":"546.211","SITE":"AFETR","CENTER_NAME":"EARTH","OBJECT_ID":"2020-006AG","BSTAR":"0.00001825700000","DECAY_DATE":null,"PERIOD":"95.593","OBJECT_NAME":"STARLINK-1172","RA_OF_ASC_NODE":"273.3152","INCLINATION":"53.0548","EPHEMERIS_TYPE":"0","RCS_SIZE":"LARGE","TIME_SYSTEM":"UTC","SEMIMAJOR_AXIS":"6925.382","FILE":"3166610","MEAN_MOTION_DDOT":"0.0000000000000","REV_AT_EPOCH":"9477","NORAD_CAT_ID":"45074"},{"PERIAPSIS":"546.224","MEAN_MOTION_DOT":"-0.00000151","TLE_LINE1":"1 45075U 20006AH  21289.30884578 -.00000151  00000-0  87880-5 0  9998","COUNTRY_CODE":"US","MEAN_MOTION":"15.06385426","APOAPSIS":"548.293","MEAN_ELEMENT_THEORY":"SGP4","ARG_OF_PERICENTER":"72.0861","REF_FRAME":"TEME","MEAN_ANOMALY":"288.0291","OBJECT_TYPE":"PAYLOAD","LAUNCH_DATE":"2020-01-29","ECCENTRICITY":"0.00014940","EPOCH":"2021-10-16T07:24:44.275392","TLE_LINE2":"2 45075  53.0553 273.4646 0001494  72.0861 288.0291 15.06385426 94775","GP_ID":"187354444","CLASSIFICATION_TYPE":"U","ELEMENT_SET_NO":"999","MEAN_MOTION_DDOT":"0.0000000000000","REV_AT_EPOCH":"9477","NORAD_CAT_ID":"45075","SEMIMAJOR_AXIS":"6925.393","FILE":"3166610","TIME_SYSTEM":"UTC","RCS_SIZE":"LARGE","EPHEMERIS_TYPE":"0","PERIOD":"95.593","OBJECT_NAME":"STARLINK-1174","RA_OF_ASC_NODE":"273.4646","INCLINATION":"53.0553","DECAY_DATE":null,"BSTAR":"0.00000878800000","SITE":"AFETR","CENTER_NAME":"EARTH","OBJECT_ID":"2020-006AH"},{"ELEMENT_SET_NO":"999","CLASSIFICATION_TYPE":"U","ECCENTRICITY":"0.00014620","EPOCH":"2021-10-16T05:59:48.230592","GP_ID":"187355193","TLE_LINE2":"2 45076  53.0545 273.7209 0001462  74.8577 285.2574 15.06393657 94761","LAUNCH_DATE":"2020-01-29","REF_FRAME":"TEME","OBJECT_TYPE":"PAYLOAD","MEAN_ANOMALY":"285.2574","APOAPSIS":"548.245","MEAN_ELEMENT_THEORY":"SGP4","ARG_OF_PERICENTER":"74.8577","COUNTRY_CODE":"US","TLE_LINE1":"1 45076U 20006AJ  21289.24986378 -.00000019  00000-0  17617-4 0  9996","MEAN_MOTION":"15.06393657","MEAN_MOTION_DOT":"-0.00000019","PERIAPSIS":"546.221","SITE":"AFETR","CENTER_NAME":"EARTH","OBJECT_ID":"2020-006AJ","BSTAR":"0.00001761700000","DECAY_DATE":null,"PERIOD":"95.593","OBJECT_NAME":"STARLINK-1180","RA_OF_ASC_NODE":"273.7209","INCLINATION":"53.0545","EPHEMERIS_TYPE":"0","RCS_SIZE":"LARGE","TIME_SYSTEM":"UTC","SEMIMAJOR_AXIS":"6925.368","FILE":"3166610","MEAN_MOTION_DDOT":"0.0000000000000","REV_AT_EPOCH":"9476","NORAD_CAT_ID":"45076"},{"ECCENTRICITY":"0.00013650","EPOCH":"2021-10-16T07:37:30.391104","TLE_LINE2":"2 45077  53.0554 255.6024 0001365  49.5553 310.5570 15.39884350 95020","GP_ID":"187355445","ELEMENT_SET_NO":"999","CLASSIFICATION_TYPE":"U","REF_FRAME":"TEME","OBJECT_TYPE":"PAYLOAD","MEAN_ANOMALY":"310.5570","LAUNCH_DATE":"2020-01-29","TLE_LINE1":"1 45077U 20006AK  21289.31771286  .00004808  00000-0  12901-3 0  9994","COUNTRY_CODE":"US","MEAN_MOTION":"15.39884350","APOAPSIS":"447.385","MEAN_ELEMENT_THEORY":"SGP4","ARG_OF_PERICENTER":"49.5553","PERIAPSIS":"445.521","MEAN_MOTION_DOT":"0.00004808","BSTAR":"0.00012901000000","SITE":"AFETR","CENTER_NAME":"EARTH","OBJECT_ID":"2020-006AK","OBJECT_NAME":"STARLINK-1182","PERIOD":"93.514","RA_OF_ASC_NODE":"255.6024","INCLINATION":"53.0554","DECAY_DATE":null,"TIME_SYSTEM":"UTC","RCS_SIZE":"LARGE","EPHEMERIS_TYPE":"0","MEAN_MOTION_DDOT":"0.0000000000000","REV_AT_EPOCH":"9502","NORAD_CAT_ID":"45077","SEMIMAJOR_AXIS":"6824.588","FILE":"3166610"},{"RA_OF_ASC_NODE":"273.3328","INCLINATION":"53.0559","OBJECT_NAME":"STARLINK-1177","PERIOD":"95.592","DECAY_DATE":null,"BSTAR":"0.00013732000000","OBJECT_ID":"2020-006AL","CENTER_NAME":"EARTH","SITE":"AFETR","REV_AT_EPOCH":"9476","NORAD_CAT_ID":"45078","MEAN_MOTION_DDOT":"0.0000000000000","FILE":"3166610","SEMIMAJOR_AXIS":"6925.363","TIME_SYSTEM":"UTC","RCS_SIZE":"LARGE","EPHEMERIS_TYPE":"0","REF_FRAME":"TEME","MEAN_ANOMALY":"290.3901","OBJECT_TYPE":"PAYLOAD","LAUNCH_DATE":"2020-01-29","EPOCH":"2021-10-16T08:01:51.978432","GP_ID":"187356195","TLE_LINE2":"2 45078  53.0559 273.3328 0001683  69.7269 290.3901 15.06395131 94762","ECCENTRICITY":"0.00016830","CLASSIFICATION_TYPE":"U","ELEMENT_SET_NO":"999","PERIAPSIS":"546.063","MEAN_MOTION_DOT":"0.00001764","MEAN_MOTION":"15.06395131","TLE_LINE1":"1 45078U 20006AL  21289.33462938  .00001764  00000-0  13732-3 0  9999","COUNTRY_CODE":"US","ARG_OF_PERICENTER":"69.7269","MEAN_ELEMENT_THEORY":"SGP4","APOAPSIS":"548.394"},{"MEAN_MOTION_DOT":"0.00001553","PERIAPSIS":"546.373","APOAPSIS":"548.056","MEAN_ELEMENT_THEORY":"SGP4","ARG_OF_PERICENTER":"81.7959","TLE_LINE1":"1 45079U 20006AM  21289.24616022  .00001553  00000-0  12314-3 0  9996","COUNTRY_CODE":"US","MEAN_MOTION":"15.06399742","LAUNCH_DATE":"2020-01-29","MEAN_ANOMALY":"278.3167","OBJECT_TYPE":"PAYLOAD","REF_FRAME":"TEME","ELEMENT_SET_NO":"999","CLASSIFICATION_TYPE":"U","ECCENTRICITY":"0.00012150","TLE_LINE2":"2 45079  53.0531 273.7458 0001215  81.7959 278.3167 15.06399742 94753","GP_ID":"187354943","EPOCH":"2021-10-16T05:54:28.243008","SEMIMAJOR_AXIS":"6925.349","FILE":"3166610","MEAN_MOTION_DDOT":"0.0000000000000","NORAD_CAT_ID":"45079","REV_AT_EPOCH":"9475","EPHEMERIS_TYPE":"0","RCS_SIZE":"LARGE","TIME_SYSTEM":"UTC","DECAY_DATE":null,"PERIOD":"95.592","OBJECT_NAME":"STARLINK-1149","INCLINATION":"53.0531","RA_OF_ASC_NODE":"273.7458","CENTER_NAME":"EARTH","SITE":"AFETR","OBJECT_ID":"2020-006AM","BSTAR":"0.00012314000000"},{"CLASSIFICATION_TYPE":"U","ELEMENT_SET_NO":"999","TLE_LINE2":"2 45080  53.0541 273.4070 0001497  72.1762 287.9390 15.06392285 94772","GP_ID":"187354695","EPOCH":"2021-10-16T07:40:38.948736","ECCENTRICITY":"0.00014970","LAUNCH_DATE":"2020-01-29","OBJECT_TYPE":"PAYLOAD","MEAN_ANOMALY":"287.9390","REF_FRAME":"TEME","ARG_OF_PERICENTER":"72.1762","MEAN_ELEMENT_THEORY":"SGP4","APOAPSIS":"548.274","MEAN_MOTION":"15.06392285","TLE_LINE1":"1 45080U 20006AN  21289.31989524 -.00000135  00000-0  98331-5 0  9997","COUNTRY_CODE":"US","MEAN_MOTION_DOT":"-0.00000135","PERIAPSIS":"546.200","OBJECT_ID":"2020-006AN","CENTER_NAME":"EARTH","SITE":"AFETR","BSTAR":"0.00000983310000","DECAY_DATE":null,"INCLINATION":"53.0541","RA_OF_ASC_NODE":"273.4070","PERIOD":"95.593","OBJECT_NAME":"STARLINK-1153","EPHEMERIS_TYPE":"0","RCS_SIZE":"LARGE","TIME_SYSTEM":"UTC","FILE":"3166610","SEMIMAJOR_AXIS":"6925.372","NORAD_CAT_ID":"45080","REV_AT_EPOCH":"9477","MEAN_MOTION_DDOT":"0.0000000000000"},{"RCS_SIZE":"LARGE","EPHEMERIS_TYPE":"0","TIME_SYSTEM":"UTC","FILE":"3166610","SEMIMAJOR_AXIS":"6925.384","NORAD_CAT_ID":"45081","REV_AT_EPOCH":"9476","MEAN_MOTION_DDOT":"0.0000000000000","OBJECT_ID":"2020-006AP","CENTER_NAME":"EARTH","SITE":"AFETR","BSTAR":"0.00002591300000","DECAY_DATE":null,"INCLINATION":"53.0548","RA_OF_ASC_NODE":"273.8095","PERIOD":"95.593","OBJECT_NAME":"STARLINK-1151","ARG_OF_PERICENTER":"72.8509","MEAN_ELEMENT_THEORY":"SGP4","APOAPSIS":"548.261","MEAN_MOTION":"15.06388587","TLE_LINE1":"1 45081U 20006AP  21289.23144407  .00000104  00000-0  25913-4 0  9992","COUNTRY_CODE":"US","MEAN_MOTION_DOT":"0.00000104","PERIAPSIS":"546.236","CLASSIFICATION_TYPE":"U","ELEMENT_SET_NO":"999","TLE_LINE2":"2 45081  53.0548 273.8095 0001462  72.8509 287.2640 15.06388587 94769","GP_ID":"187355945","EPOCH":"2021-10-16T05:33:16.767648","ECCENTRICITY":"0.00014620","LAUNCH_DATE":"2020-01-29","MEAN_ANOMALY":"287.2640","OBJECT_TYPE":"PAYLOAD","REF_FRAME":"TEME"},{"EPHEMERIS_TYPE":"0","RCS_SIZE":"LARGE","TIME_SYSTEM":"UTC","FILE":"3166610","SEMIMAJOR_AXIS":"6925.360","REV_AT_EPOCH":"9477","NORAD_CAT_ID":"45082","MEAN_MOTION_DDOT":"0.0000000000000","OBJECT_ID":"2020-006AQ","CENTER_NAME":"EARTH","SITE":"AFETR","BSTAR":"0.00015455000000","DECAY_DATE":null,"RA_OF_ASC_NODE":"273.2623","INCLINATION":"53.0526","PERIOD":"95.592","OBJECT_NAME":"STARLINK-1160","MEAN_ELEMENT_THEORY":"SGP4","ARG_OF_PERICENTER":"77.3640","APOAPSIS":"548.131","MEAN_MOTION":"15.06396334","TLE_LINE1":"1 45082U 20006AQ  21289.35306079  .00002021  00000-0  15455-3 0  9990","COUNTRY_CODE":"US","MEAN_MOTION_DOT":"0.00002021","PERIAPSIS":"546.319","CLASSIFICATION_TYPE":"U","ELEMENT_SET_NO":"999","EPOCH":"2021-10-16T08:28:24.452256","GP_ID":"187355696","TLE_LINE2":"2 45082  53.0526 273.2623 0001308  77.3640 282.7495 15.06396334 94770","ECCENTRICITY":"0.00013080","LAUNCH_DATE":"2020-01-29","REF_FRAME":"TEME","MEAN_ANOMALY":"282.7495","OBJECT_TYPE":"PAYLOAD"}];
